ONEWEB-0657             
1 55818U 23029Y   25303.19645237 -.00000075  00000+0 -21903-3 0  9994
2 55818  87.9237 350.7481 0002197  78.3233 281.8146 13.19722581128570
ONEWEB-0658             
1 55819U 23029Z   25303.19172805  .00000004  00000+0 -22187-4 0  9998
2 55819  87.9253 350.6945 0002333 103.2227 256.9166 13.19725997128586
ONEWEB-0660             
1 55820U 23029AA  25303.09870381  .00000020  00000+0  19902-4 0  9991
2 55820  87.9022 335.5278 0001789 106.3658 253.7668 13.14504487129171
ONEWEB-0661             
1 55821U 23029AB  25303.13359753 -.00000128  00000+0 -38095-3 0  9996
2 55821  87.9008 335.5901 0001722 106.0115 254.1204 13.14501976129161
ONEWEB-0662             
1 55822U 23029AC  25303.16848378  .00000220  00000+0  55943-3 0  9998
2 55822  87.9020 335.5883 0001953 106.5533 253.5811 13.14501072129210
ONEWEB-0663             
1 55823U 23029AD  25303.10439003 -.00000006  00000+0 -47439-4 0  9990
2 55823  87.9214 320.3757 0002067 105.5950 254.5412 13.20849627130776
ONEWEB-0664             
1 55824U 23029AE  25303.04233644  .00000055  00000+0  10292-3 0  9995
2 55824  87.9196 320.4005 0001512 100.7319 259.3984 13.20771101130760
ONEWEB-0665             
1 55825U 23029AF  25303.13042674  .00000302  00000+0  77877-3 0  9994
2 55825  87.9016 335.5672 0002019 107.3759 252.7591 13.14499908129183
ONEWEB-0666             
1 55826U 23029AG  25303.11177957 -.00000085  00000+0 -24010-3 0  9997
2 55826  87.9195 320.3750 0002082  73.3050 286.8312 13.20770828130784
ONEWEB-0667             
1 55827U 23029AH  25303.10544906 -.00000045  00000+0 -14340-3 0  9990
2 55827  87.9202 320.3060 0001790  99.2293 260.9042 13.20770523130773
ONEWEB-0669             
1 55828U 23029AJ  25303.10073577 -.00000033  00000+0 -11251-3 0  9997
2 55828  87.9194 320.3451 0001291  77.9149 282.2129 13.20771957130772
ONEWEB-0670             
1 55829U 23029AK  25303.10822601 -.00000061  00000+0 -19898-3 0  9994
2 55829  87.9018 335.5915 0001624 105.6493 254.4816 13.14503366129202
ONEWEB-0671             
1 55830U 23029AL  25303.18699345 -.00000057  00000+0 -17377-3 0  9996
2 55830  87.9237 350.7437 0001830 103.4469 256.6868 13.19726469128568
ONEWEB-0672             
1 55831U 23029AM  25303.09600749 -.00000073  00000+0 -21151-3 0  9990
2 55831  87.9189 320.3270 0001801  84.2884 275.8455 13.20770982130770
ONEWEB-0673             
1 55832U 23029AN  25303.16330340  .00000046  00000+0  83628-4 0  9992
2 55832  87.9254 350.7217 0002081 100.3095 259.8273 13.19726322128568
ONEWEB-0674             
1 55833U 23029AP  25303.15261080  .00000145  00000+0  35625-3 0  9999
2 55833  87.9005 335.5632 0001482 108.6461 251.4830 13.14505414129196
