[{"OBJECT_NAME":"ONEWEB-0657","OBJECT_ID":"2023-029Y","EPOCH":"2025-10-30T04:42:53.484768","MEAN_MOTION":13.19722581,"ECCENTRICITY":0.00021972,"INCLINATION":87.9237,"RA_OF_ASC_NODE":350.7481,"ARG_OF_PERICENTER":78.3233,"MEAN_ANOMALY":281.8146,"EPHEMERIS_TYPE":0,"CLASSIFICATION_TYPE":"U","NORAD_CAT_ID":55818,"ELEMENT_SET_NO":999,"REV_AT_EPOCH":12857,"BSTAR":-0.00021903461,"MEAN_MOTION_DOT":-7.5e-7,"MEAN_MOTION_DDOT":0},{"OBJECT_NAME":"ONEWEB-0658","OBJECT_ID":"2023-029Z","EPOCH":"2025-10-30T04:36:05.303520","MEAN_MOTION":13.19725997,"ECCENTRICITY":0.0002333,"INCLINATION":87.9253,"RA_OF_ASC_NODE":350.6945,"ARG_OF_PERICENTER":103.2227,"MEAN_ANOMALY":256.9166,"EPHEMERIS_TYPE":0,"CLASSIFICATION_TYPE":"U","NORAD_CAT_ID":55819,"ELEMENT_SET_NO":999,"REV_AT_EPOCH":12858,"BSTAR":-2.2186764e-5,"MEAN_MOTION_DOT":4.0e-8,"MEAN_MOTION_DDOT":0},{"OBJECT_NAME":"ONEWEB-0660","OBJECT_ID":"2023-029AA","EPOCH":"2025-10-30T02:22:08.009184","MEAN_MOTION":13.14504487,"ECCENTRICITY":0.00017898,"INCLINATION":87.9022,"RA_OF_ASC_NODE":335.5278,"ARG_OF_PERICENTER":106.3658,"MEAN_ANOMALY":253.7668,"EPHEMERIS_TYPE":0,"CLASSIFICATION_TYPE":"U","NORAD_CAT_ID":55820,"ELEMENT_SET_NO":999,"REV_AT_EPOCH":12917,"BSTAR":1.9902411e-5,"MEAN_MOTION_DOT":2.0e-7,"MEAN_MOTION_DDOT":0},{"OBJECT_NAME":"ONEWEB-0661","OBJECT_ID":"2023-029AB","EPOCH":"2025-10-30T03:12:22.826592","MEAN_MOTION":13.14501976,"ECCENTRICITY":0.00017227,"INCLINATION":87.9008,"RA_OF_ASC_NODE":335.5901,"ARG_OF_PERICENTER":106.0115,"MEAN_ANOMALY":254.1204,"EPHEMERIS_TYPE":0,"CLASSIFICATION_TYPE":"U","NORAD_CAT_ID":55821,"ELEMENT_SET_NO":999,"REV_AT_EPOCH":12916,"BSTAR":-0.00038094776,"MEAN_MOTION_DOT":-1.28e-6,"MEAN_MOTION_DDOT":0},{"OBJECT_NAME":"ONEWEB-0662","OBJECT_ID":"2023-029AC","EPOCH":"2025-10-30T04:02:36.998592","MEAN_MOTION":13.14501072,"ECCENTRICITY":0.00019532,"INCLINATION":87.902,"RA_OF_ASC_NODE":335.5883,"ARG_OF_PERICENTER":106.5533,"MEAN_ANOMALY":253.5811,"EPHEMERIS_TYPE":0,"CLASSIFICATION_TYPE":"U","NORAD_CAT_ID":55822,"ELEMENT_SET_NO":999,"REV_AT_EPOCH":12921,"BSTAR":0.00055943395,"MEAN_MOTION_DOT":2.2e-6,"MEAN_MOTION_DDOT":0},{"OBJECT_NAME":"ONEWEB-0663","OBJECT_ID":"2023-029AD","EPOCH":"2025-10-30T02:30:19.298592","MEAN_MOTION":13.20849627,"ECCENTRICITY":0.0002067,"INCLINATION":87.9214,"RA_OF_ASC_NODE":320.3757,"ARG_OF_PERICENTER":105.595,"MEAN_ANOMALY":254.5412,"EPHEMERIS_TYPE":0,"CLASSIFICATION_TYPE":"U","NORAD_CAT_ID":55823,"ELEMENT_SET_NO":999,"REV_AT_EPOCH":13077,"BSTAR":-4.7438708e-5,"MEAN_MOTION_DOT":-6.0e-8,"MEAN_MOTION_DDOT":0},{"OBJECT_NAME":"ONEWEB-0664","OBJECT_ID":"2023-029AE","EPOCH":"2025-10-30T01:00:57.868416","MEAN_MOTION":13.20771101,"ECCENTRICITY":0.00015123,"INCLINATION":87.9196,"RA_OF_ASC_NODE":320.4005,"ARG_OF_PERICENTER":100.7319,"MEAN_ANOMALY":259.3984,"EPHEMERIS_TYPE":0,"CLASSIFICATION_TYPE":"U","NORAD_CAT_ID":55824,"ELEMENT_SET_NO":999,"REV_AT_EPOCH":13076,"BSTAR":0.00010291653,"MEAN_MOTION_DOT":5.5e-7,"MEAN_MOTION_DDOT":0},{"OBJECT_NAME":"ONEWEB-0665","OBJECT_ID":"2023-029AF","EPOCH":"2025-10-30T03:07:48.870336","MEAN_MOTION":13.14499908,"ECCENTRICITY":0.00020191,"INCLINATION":87.9016,"RA_OF_ASC_NODE":335.5672,"ARG_OF_PERICENTER":107.3759,"MEAN_ANOMALY":252.7591,"EPHEMERIS_TYPE":0,"CLASSIFICATION_TYPE":"U","NORAD_CAT_ID":55825,"ELEMENT_SET_NO":999,"REV_AT_EPOCH":12918,"BSTAR":0.00077877451,"MEAN_MOTION_DOT":3.02e-6,"MEAN_MOTION_DDOT":0},{"OBJECT_NAME":"ONEWEB-0666","OBJECT_ID":"2023-029AG","EPOCH":"2025-10-30T02:40:57.754848","MEAN_MOTION":13.20770828,"ECCENTRICITY":0.00020823,"INCLINATION":87.9195,"RA_OF_ASC_NODE":320.375,"ARG_OF_PERICENTER":73.305,"MEAN_ANOMALY":286.8312,"EPHEMERIS_TYPE":0,"CLASSIFICATION_TYPE":"U","NORAD_CAT_ID":55826,"ELEMENT_SET_NO":999,"REV_AT_EPOCH":13078,"BSTAR":-0.00024010011,"MEAN_MOTION_DOT":-8.5e-7,"MEAN_MOTION_DDOT":0},{"OBJECT_NAME":"ONEWEB-0667","OBJECT_ID":"2023-029AH","EPOCH":"2025-10-30T02:31:50.798784","MEAN_MOTION":13.20770523,"ECCENTRICITY":0.00017908,"INCLINATION":87.9202,"RA_OF_ASC_NODE":320.306,"ARG_OF_PERICENTER":99.2293,"MEAN_ANOMALY":260.9042,"EPHEMERIS_TYPE":0,"CLASSIFICATION_TYPE":"U","NORAD_CAT_ID":55827,"ELEMENT_SET_NO":999,"REV_AT_EPOCH":13077,"BSTAR":-0.00014339565,"MEAN_MOTION_DOT":-4.5e-7,"MEAN_MOTION_DDOT":0},{"OBJECT_NAME":"ONEWEB-0669","OBJECT_ID":"2023-029AJ","EPOCH":"2025-10-30T02:25:03.570528","MEAN_MOTION":13.20771957,"ECCENTRICITY":0.0001291,"INCLINATION":87.9194,"RA_OF_ASC_NODE":320.3451,"ARG_OF_PERICENTER":77.9149,"MEAN_ANOMALY":282.2129,"EPHEMERIS_TYPE":0,"CLASSIFICATION_TYPE":"U","NORAD_CAT_ID":55828,"ELEMENT_SET_NO":999,"REV_AT_EPOCH":13077,"BSTAR":-0.00011250623,"MEAN_MOTION_DOT":-3.3e-7,"MEAN_MOTION_DDOT":0},{"OBJECT_NAME":"ONEWEB-0670","OBJECT_ID":"2023-029AK","EPOCH":"2025-10-30T02:35:50.727264","MEAN_MOTION":13.14503366,"ECCENTRICITY":0.00016248,"INCLINATION":87.9018,"RA_OF_ASC_NODE":335.5915,"ARG_OF_PERICENTER":105.6493,"MEAN_ANOMALY":254.4816,"EPHEMERIS_TYPE":0,"CLASSIFICATION_TYPE":"U","NORAD_CAT_ID":55829,"ELEMENT_SET_NO":999,"REV_AT_EPOCH":12920,"BSTAR":-0.00019897939,"MEAN_MOTION_DOT":-6.1e-7,"MEAN_MOTION_DDOT":0},{"OBJECT_NAME":"ONEWEB-0671","OBJECT_ID":"2023-029AL","EPOCH":"2025-10-30T04:29:16.234080","MEAN_MOTION":13.19726469,"ECCENTRICITY":0.00018302,"INCLINATION":87.9237,"RA_OF_ASC_NODE":350.7437,"ARG_OF_PERICENTER":103.4469,"MEAN_ANOMALY":256.6868,"EPHEMERIS_TYPE":0,"CLASSIFICATION_TYPE":"U","NORAD_CAT_ID":55830,"ELEMENT_SET_NO":999,"REV_AT_EPOCH":12856,"BSTAR":-0.00017377052,"MEAN_MOTION_DOT":-5.7e-7,"MEAN_MOTION_DDOT":0},{"OBJECT_NAME":"ONEWEB-0672","OBJECT_ID":"2023-029AM","EPOCH":"2025-10-30T02:18:15.047136","MEAN_MOTION":13.20770982,"ECCENTRICITY":0.00018015,"INCLINATION":87.9189,"RA_OF_ASC_NODE":320.327,"ARG_OF_PERICENTER":84.2884,"MEAN_ANOMALY":275.8455,"EPHEMERIS_TYPE":0,"CLASSIFICATION_TYPE":"U","NORAD_CAT_ID":55831,"ELEMENT_SET_NO":999,"REV_AT_EPOCH":13077,"BSTAR":-0.00021151234,"MEAN_MOTION_DOT":-7.3e-7,"MEAN_MOTION_DDOT":0},{"OBJECT_NAME":"ONEWEB-0673","OBJECT_ID":"2023-029AN","EPOCH":"2025-10-30T03:55:09.413760","MEAN_MOTION":13.19726322,"ECCENTRICITY":0.00020811,"INCLINATION":87.9254,"RA_OF_ASC_NODE":350.7217,"ARG_OF_PERICENTER":100.3095,"MEAN_ANOMALY":259.8273,"EPHEMERIS_TYPE":0,"CLASSIFICATION_TYPE":"U","NORAD_CAT_ID":55832,"ELEMENT_SET_NO":999,"REV_AT_EPOCH":12856,"BSTAR":8.3628204e-5,"MEAN_MOTION_DOT":4.6e-7,"MEAN_MOTION_DDOT":0},{"OBJECT_NAME":"ONEWEB-0674","OBJECT_ID":"2023-029AP","EPOCH":"2025-10-30T03:39:45.573120","MEAN_MOTION":13.14505414,"ECCENTRICITY":0.00014826,"INCLINATION":87.9005,"RA_OF_ASC_NODE":335.5632,"ARG_OF_PERICENTER":108.6461,"MEAN_ANOMALY":251.483,"EPHEMERIS_TYPE":0,"CLASSIFICATION_TYPE":"U","NORAD_CAT_ID":55833,"ELEMENT_SET_NO":999,"REV_AT_EPOCH":12919,"BSTAR":0.00035625467,"MEAN_MOTION_DOT":1.45e-6,"MEAN_MOTION_DDOT":0}]
